[{"OBJECT_NAME":"STARLINK-31280","OBJECT_ID":"2024-017T","EPOCH":"2026-03-09T16:30:41.747616","MEAN_MOTION":15.30174156,"ECCENTRICITY":0.00012834,"INCLINATION":53.1614,"RA_OF_ASC_NODE":204.4881,"ARG_OF_PERICENTER":77.8411,"MEAN_ANOMALY":282.2734,"EPHEMERIS_TYPE":0,"CLASSIFICATION_TYPE":"U","NORAD_CAT_ID":58843,"ELEMENT_SET_NO":999,"REV_AT_EPOCH":12005,"BSTAR":6.2805382e-5,"MEAN_MOTION_DOT":1.5e-5,"MEAN_MOTION_DDOT":0},{"OBJECT_NAME":"FENGYUN 1C DEB","OBJECT_ID":"1999-025CMP","EPOCH":"2026-03-08T08:37:00.789888","MEAN_MOTION":14.96815474,"ECCENTRICITY":0.01497126,"INCLINATION":98.9176,"RA_OF_ASC_NODE":115.7276,"ARG_OF_PERICENTER":148.4975,"MEAN_ANOMALY":212.5316,"EPHEMERIS_TYPE":0,"CLASSIFICATION_TYPE":"U","NORAD_CAT_ID":31938,"ELEMENT_SET_NO":999,"REV_AT_EPOCH":409,"BSTAR":0.00073670691,"MEAN_MOTION_DOT":0.00010536,"MEAN_MOTION_DDOT":0}]
